{"type": "FeatureCollection", "features": [ {"type": "Feature", "properties": {"norad_id": 40664, "name": "SKY MEXICO-1", "group": "intelsat", "lat": 0.03838411231558507, "lon": 51.22448718045152, "alt_km": 35795.48592448152, "timestamp": "2025-12-01T03:58:49.229737+00:00", "meta": {"OBJECT_NAME": "SKY MEXICO-1", "OBJECT_ID": "2015-026B", "EPOCH": "2025-11-30T18:36:09.209376", "MEAN_MOTION": 1.00271504, "ECCENTRICITY": 0.0002545, "INCLINATION": 0.018, "RA_OF_ASC_NODE": 316.565, "ARG_OF_PERICENTER": 305.129, "MEAN_ANOMALY": 8.4945, "EPHEMERIS_TYPE": 0, "CLASSIFICATION_TYPE": "U", "NORAD_CAT_ID": 40664, "ELEMENT_SET_NO": 999, "REV_AT_EPOCH": 3846, "BSTAR": 0, "MEAN_MOTION_DOT": -2.13e-06, "MEAN_MOTION_DDOT": 0, "GROUP": "intelsat"}, "tle": {"line1": "1 40664U 15026B   25334.77510659 -.00000213  00000+0  00000+0 0  9996", "line2": "2 40664   0.0180 316.5650 0002545 305.1290   8.4945  1.00271504 38464"}}, "geometry": {"type": "Point", "coordinates": [51.22448718045152, 0.03838411231558507]}}, {"type": "Feature", "properties": {"norad_id": 40874, "name": "INTELSAT 34 (IS-34)", "group": "intelsat", "lat": 0.024476350956895, "lon": 74.45550447610748, "alt_km": 35786.00528056289, "timestamp": "2025-12-01T03:58:49.229750+00:00", "meta": {"OBJECT_NAME": "INTELSAT 34 (IS-34)", "OBJECT_ID": "2015-039A", "EPOCH": "2025-11-30T18:42:57.508128", "MEAN_MOTION": 1.00271526, "ECCENTRICITY": 7.57e-05, "INCLINATION": 0.014, "RA_OF_ASC_NODE": 295.4391, "ARG_OF_PERICENTER": 225.4528, "MEAN_ANOMALY": 134.2569, "EPHEMERIS_TYPE": 0, "CLASSIFICATION_TYPE": "U", "NORAD_CAT_ID": 40874, "ELEMENT_SET_NO": 999, "REV_AT_EPOCH": 3763, "BSTAR": 0, "MEAN_MOTION_DOT": -2.64e-06, "MEAN_MOTION_DDOT": 0, "GROUP": "intelsat"}, "tle": {"line1": "1 40874U 15039A   25334.77983227 -.00000264  00000+0  00000+0 0  9994", "line2": "2 40874   0.0140 295.4391 0000757 225.4528 134.2569  1.00271526 37633"}}, "geometry": {"type": "Point", "coordinates": [74.45550447610748, 0.024476350956895]}}, {"type": "Feature", "properties": {"norad_id": 41581, "name": "INTELSAT 31 (IS-31)", "group": "intelsat", "lat": 0.031184597768913372, "lon": 34.94206856945102, "alt_km": 35792.40590638184, "timestamp": "2025-12-01T03:58:49.229773+00:00", "meta": {"OBJECT_NAME": "INTELSAT 31 (IS-31)", "OBJECT_ID": "2016-035A", "EPOCH": "2025-11-30T13:23:28.748832", "MEAN_MOTION": 1.00278841, "ECCENTRICITY": 0.0001994, "INCLINATION": 0.0187, "RA_OF_ASC_NODE": 266.0499, "ARG_OF_PERICENTER": 319.8281, "MEAN_ANOMALY": 309.6399, "EPHEMERIS_TYPE": 0, "CLASSIFICATION_TYPE": "U", "NORAD_CAT_ID": 41581, "ELEMENT_SET_NO": 999, "REV_AT_EPOCH": 3469, "BSTAR": 0, "MEAN_MOTION_DOT": -1.3e-06, "MEAN_MOTION_DDOT": 0, "GROUP": "intelsat"}, "tle": {"line1": "1 41581U 16035A   25334.55797163 -.00000130  00000+0  00000+0 0  9997", "line2": "2 41581   0.0187 266.0499 0001994 319.8281 309.6399  1.00278841 34690"}}, "geometry": {"type": "Point", "coordinates": [34.94206856945102, 0.031184597768913372]}}, {"type": "Feature", "properties": {"norad_id": 41747, "name": "INTELSAT 36 (IS-36)", "group": "intelsat", "lat": -0.022715335954791544, "lon": -161.5262569923484, "alt_km": 35787.35472220568, "timestamp": "2025-12-01T03:58:49.229787+00:00", "meta": {"OBJECT_NAME": "INTELSAT 36 (IS-36)", "OBJECT_ID": "2016-053A", "EPOCH": "2025-11-30T19:18:24.112800", "MEAN_MOTION": 1.00276384, "ECCENTRICITY": 0.0001414, "INCLINATION": 0.011, "RA_OF_ASC_NODE": 341.081, "ARG_OF_PERICENTER": 333.1566, "MEAN_ANOMALY": 113.814, "EPHEMERIS_TYPE": 0, "CLASSIFICATION_TYPE": "U", "NORAD_CAT_ID": 41747, "ELEMENT_SET_NO": 999, "REV_AT_EPOCH": 3395, "BSTAR": 0, "MEAN_MOTION_DOT": -4e-08, "MEAN_MOTION_DDOT": 0, "GROUP": "intelsat"}, "tle": {"line1": "1 41747U 16053A   25334.80444575 -.00000004  00000+0  00000+0 0  9995", "line2": "2 41747   0.0110 341.0810 0001414 333.1566 113.8140  1.00276384 33950"}}, "geometry": {"type": "Point", "coordinates": [-161.5262569923484, -0.022715335954791544]}}, {"type": "Feature", "properties": {"norad_id": 41945, "name": "INTELSAT 32E (IS-32E)", "group": "intelsat", "lat": 0.01368158682579659, "lon": 86.8004024362869, "alt_km": 35785.83715329716, "timestamp": "2025-12-01T03:58:49.229806+00:00", "meta": {"OBJECT_NAME": "INTELSAT 32E (IS-32E)", "OBJECT_ID": "2017-007B", "EPOCH": "2025-11-30T18:46:27.174144", "MEAN_MOTION": 1.002716, "ECCENTRICITY": 2.85e-05, "INCLINATION": 0.0183, "RA_OF_ASC_NODE": 48.654, "ARG_OF_PERICENTER": 111.6952, "MEAN_ANOMALY": 148.0148, "EPHEMERIS_TYPE": 0, "CLASSIFICATION_TYPE": "U", "NORAD_CAT_ID": 41945, "ELEMENT_SET_NO": 999, "REV_AT_EPOCH": 3223, "BSTAR": 0, "MEAN_MOTION_DOT": -2.47e-06, "MEAN_MOTION_DDOT": 0, "GROUP": "intelsat"}, "tle": {"line1": "1 41945U 17007B   25334.78225896 -.00000247  00000+0  00000+0 0  9994", "line2": "2 41945   0.0183  48.6540 0000285 111.6952 148.0148  1.00271600 32237"}}, "geometry": {"type": "Point", "coordinates": [86.8004024362869, 0.01368158682579659]}}, {"type": "Feature", "properties": {"norad_id": 42818, "name": "INTELSAT 35E (IS-35E)", "group": "intelsat", "lat": 0.02833632817721235, "lon": 95.47943034913193, "alt_km": 35795.45390926847, "timestamp": "2025-12-01T03:58:49.229822+00:00", "meta": {"OBJECT_NAME": "INTELSAT 35E (IS-35E)", "OBJECT_ID": "2017-041A", "EPOCH": "2025-11-30T18:48:56.933856", "MEAN_MOTION": 1.00271761, "ECCENTRICITY": 0.0002401, "INCLINATION": 0.0181, "RA_OF_ASC_NODE": 346.7462, "ARG_OF_PERICENTER": 265.4248, "MEAN_ANOMALY": 65.5054, "EPHEMERIS_TYPE": 0, "CLASSIFICATION_TYPE": "U", "NORAD_CAT_ID": 42818, "ELEMENT_SET_NO": 999, "REV_AT_EPOCH": 3082, "BSTAR": 0, "MEAN_MOTION_DOT": -2.16e-06, "MEAN_MOTION_DDOT": 0, "GROUP": "intelsat"}, "tle": {"line1": "1 42818U 17041A   25334.78399229 -.00000216  00000+0  00000+0 0  9990", "line2": "2 42818   0.0181 346.7462 0002401 265.4248  65.5054  1.00271761 30828"}}, "geometry": {"type": "Point", "coordinates": [95.47943034913193, 0.02833632817721235]}}, {"type": "Feature", "properties": {"norad_id": 42950, "name": "INTELSAT 37E (IS-37E)", "group": "intelsat", "lat": 0.0001588678596169493, "lon": 111.95184708635918, "alt_km": 35794.37791157132, "timestamp": "2025-12-01T03:58:49.229837+00:00", "meta": {"OBJECT_NAME": "INTELSAT 37E (IS-37E)", "OBJECT_ID": "2017-059A", "EPOCH": "2025-11-30T18:53:41.481024", "MEAN_MOTION": 1.00273184, "ECCENTRICITY": 0.0003163, "INCLINATION": 0.0165, "RA_OF_ASC_NODE": 284.099, "ARG_OF_PERICENTER": 318.1795, "MEAN_ANOMALY": 93.074, "EPHEMERIS_TYPE": 0, "CLASSIFICATION_TYPE": "U", "NORAD_CAT_ID": 42950, "ELEMENT_SET_NO": 999, "REV_AT_EPOCH": 3007, "BSTAR": 0, "MEAN_MOTION_DOT": -1.18e-06, "MEAN_MOTION_DDOT": 0, "GROUP": "intelsat"}, "tle": {"line1": "1 42950U 17059A   25334.78728566 -.00000118  00000+0  00000+0 0  9997", "line2": "2 42950   0.0165 284.0990 0003163 318.1795  93.0740  1.00273184 30072"}}, "geometry": {"type": "Point", "coordinates": [111.95184708635918, 0.0001588678596169493]}}, {"type": "Feature", "properties": {"norad_id": 43632, "name": "AZERSPACE 2 (IS-38)", "group": "intelsat", "lat": -0.029253257562279755, "lon": 175.0622470529839, "alt_km": 35784.02458382413, "timestamp": "2025-12-01T03:58:49.229868+00:00", "meta": {"OBJECT_NAME": "AZERSPACE 2 (IS-38)", "OBJECT_ID": "2018-074A", "EPOCH": "2025-11-30T18:56:51.501408", "MEAN_MOTION": 1.0027058, "ECCENTRICITY": 0.0001506, "INCLINATION": 0.0183, "RA_OF_ASC_NODE": 308.0301, "ARG_OF_PERICENTER": 295.3597, "MEAN_ANOMALY": 155.8588, "EPHEMERIS_TYPE": 0, "CLASSIFICATION_TYPE": "U", "NORAD_CAT_ID": 43632, "ELEMENT_SET_NO": 999, "REV_AT_EPOCH": 2645, "BSTAR": 0, "MEAN_MOTION_DOT": 1.58e-06, "MEAN_MOTION_DDOT": 0, "GROUP": "intelsat"}, "tle": {"line1": "1 43632U 18074A   25334.78948497  .00000158  00000+0  00000+0 0  9993", "line2": "2 43632   0.0183 308.0301 0001506 295.3597 155.8588  1.00270580 26459"}}, "geometry": {"type": "Point", "coordinates": [175.0622470529839, -0.029253257562279755]}}, {"type": "Feature", "properties": {"norad_id": 43633, "name": "HORIZONS-3E", "group": "intelsat", "lat": 0.017953223787117494, "lon": -61.00172795008376, "alt_km": 35782.927037329, "timestamp": "2025-12-01T03:58:49.229881+00:00", "meta": {"OBJECT_NAME": "HORIZONS-3E", "OBJECT_ID": "2018-074B", "EPOCH": "2025-11-30T18:04:19.757280", "MEAN_MOTION": 1.00270895, "ECCENTRICITY": 8.31e-05, "INCLINATION": 0.0277, "RA_OF_ASC_NODE": 210.7552, "ARG_OF_PERICENTER": 73.8363, "MEAN_ANOMALY": 225.4061, "EPHEMERIS_TYPE": 0, "CLASSIFICATION_TYPE": "U", "NORAD_CAT_ID": 43633, "ELEMENT_SET_NO": 999, "REV_AT_EPOCH": 2635, "BSTAR": 0, "MEAN_MOTION_DOT": -8e-08, "MEAN_MOTION_DDOT": 0, "GROUP": "intelsat"}, "tle": {"line1": "1 43633U 18074B   25334.75300645 -.00000008  00000+0  00000+0 0  9993", "line2": "2 43633   0.0277 210.7552 0000831  73.8363 225.4061  1.00270895 26359"}}, "geometry": {"type": "Point", "coordinates": [-61.00172795008376, 0.017953223787117494]}}, {"type": "Feature", "properties": {"norad_id": 44333, "name": "AT&T T-16", "group": "intelsat", "lat": 0.008984975090671353, "lon": 29.111903963880252, "alt_km": 35787.573089948506, "timestamp": "2025-12-01T03:58:49.229907+00:00", "meta": {"OBJECT_NAME": "AT&T T-16", "OBJECT_ID": "2019-034A", "EPOCH": "2025-11-30T15:04:29.953344", "MEAN_MOTION": 1.00273033, "ECCENTRICITY": 7.15e-05, "INCLINATION": 0.0317, "RA_OF_ASC_NODE": 81.1111, "ARG_OF_PERICENTER": 75.5357, "MEAN_ANOMALY": 38.3889, "EPHEMERIS_TYPE": 0, "CLASSIFICATION_TYPE": "U", "NORAD_CAT_ID": 44333, "ELEMENT_SET_NO": 999, "REV_AT_EPOCH": 2364, "BSTAR": 0, "MEAN_MOTION_DOT": -9.4e-07, "MEAN_MOTION_DDOT": 0, "GROUP": "intelsat"}, "tle": {"line1": "1 44333U 19034A   25334.62812446 -.00000094  00000+0  00000+0 0  9996", "line2": "2 44333   0.0317  81.1111 0000715  75.5357  38.3889  1.00273033 23641"}}, "geometry": {"type": "Point", "coordinates": [29.111903963880252, 0.008984975090671353]}}]}